CCSDS_OMM_VERS = 2.0
CREATION_DATE  = 
ORIGINATOR     = 

OBJECT_NAME    = CZ-5 R/B
OBJECT_ID      = 2025-238B
CENTER_NAME    = EARTH
REF_FRAME      = TEME
TIME_SYSTEM    = UTC
MEAN_ELEMENT_THEORY = SGP/SGP4

EPOCH          = 2025-11-07T22:40:13.382976
MEAN_MOTION    = 1.93549238
ECCENTRICITY   = .7594357
INCLINATION    = 16.3413
RA_OF_ASC_NODE = 268.2612
ARG_OF_PERICENTER = 173.6154
MEAN_ANOMALY   = 210.0895

EPHEMERIS_TYPE = 0
CLASSIFICATION_TYPE = U
NORAD_CAT_ID   = 66143
ELEMENT_SET_NO = 999
REV_AT_EPOCH   = 31
BSTAR          = .18472E-2
MEAN_MOTION_DOT = .5329E-3
MEAN_MOTION_DDOT = .1062E-5

CCSDS_OMM_VERS = 2.0
CREATION_DATE  = 
ORIGINATOR     = 

OBJECT_NAME    = SPAINSAT NG II
OBJECT_ID      = 2025-239A
CENTER_NAME    = EARTH
REF_FRAME      = TEME
TIME_SYSTEM    = UTC
MEAN_ELEMENT_THEORY = SGP/SGP4

EPOCH          = 2025-11-07T13:30:54.406080
MEAN_MOTION    = 1.10251161
ECCENTRICITY   = .8080189
INCLINATION    = 23.0112
RA_OF_ASC_NODE = 244.8198
ARG_OF_PERICENTER = 181.7023
MEAN_ANOMALY   = 170.8897

EPHEMERIS_TYPE = 0
CLASSIFICATION_TYPE = U
NORAD_CAT_ID   = 66144
ELEMENT_SET_NO = 999
REV_AT_EPOCH   = 18
BSTAR          = 0
MEAN_MOTION_DOT = -.289E-5
MEAN_MOTION_DDOT = 0

CCSDS_OMM_VERS = 2.0
CREATION_DATE  = 
ORIGINATOR     = 

OBJECT_NAME    = STARLINK-35318
OBJECT_ID      = 2025-240A
CENTER_NAME    = EARTH
REF_FRAME      = TEME
TIME_SYSTEM    = UTC
MEAN_ELEMENT_THEORY = SGP/SGP4

EPOCH          = 2025-11-08T04:00:01.998720
MEAN_MOTION    = 15.72402718
ECCENTRICITY   = .0000908
INCLINATION    = 53.1579
RA_OF_ASC_NODE = 270.6149
ARG_OF_PERICENTER = 101.8625
MEAN_ANOMALY   = 337.0032

EPHEMERIS_TYPE = 0
CLASSIFICATION_TYPE = U
NORAD_CAT_ID   = 66146
ELEMENT_SET_NO = 999
REV_AT_EPOCH   = 339
BSTAR          = -.15896E-1
MEAN_MOTION_DOT = -.1876971E-1
MEAN_MOTION_DDOT = 0

CCSDS_OMM_VERS = 2.0
CREATION_DATE  = 
ORIGINATOR     = 

OBJECT_NAME    = STARLINK-33948
OBJECT_ID      = 2025-240B
CENTER_NAME    = EARTH
REF_FRAME      = TEME
TIME_SYSTEM    = UTC
MEAN_ELEMENT_THEORY = SGP/SGP4

EPOCH          = 2025-11-08T04:00:01.998720
MEAN_MOTION    = 15.72401043
ECCENTRICITY   = .0001259
INCLINATION    = 53.1579
RA_OF_ASC_NODE = 270.6109
ARG_OF_PERICENTER = 76.1572
MEAN_ANOMALY   = 4.6281

EPHEMERIS_TYPE = 0
CLASSIFICATION_TYPE = U
NORAD_CAT_ID   = 66147
ELEMENT_SET_NO = 999
REV_AT_EPOCH   = 339
BSTAR          = -.15897E-1
MEAN_MOTION_DOT = -.1877208E-1
MEAN_MOTION_DDOT = 0

CCSDS_OMM_VERS = 2.0
CREATION_DATE  = 
ORIGINATOR     = 

OBJECT_NAME    = STARLINK-35081
OBJECT_ID      = 2025-240C
CENTER_NAME    = EARTH
REF_FRAME      = TEME
TIME_SYSTEM    = UTC
MEAN_ELEMENT_THEORY = SGP/SGP4

EPOCH          = 2025-11-08T04:00:01.998720
MEAN_MOTION    = 15.72404983
ECCENTRICITY   = .0001089
INCLINATION    = 53.1589
RA_OF_ASC_NODE = 270.6072
ARG_OF_PERICENTER = 86.5984
MEAN_ANOMALY   = 356.0974

EPHEMERIS_TYPE = 0
CLASSIFICATION_TYPE = U
NORAD_CAT_ID   = 66148
ELEMENT_SET_NO = 999
REV_AT_EPOCH   = 334
BSTAR          = -.15902E-1
MEAN_MOTION_DOT = -.1877852E-1
MEAN_MOTION_DDOT = 0

CCSDS_OMM_VERS = 2.0
CREATION_DATE  = 
ORIGINATOR     = 

OBJECT_NAME    = STARLINK-35601
OBJECT_ID      = 2025-240D
CENTER_NAME    = EARTH
REF_FRAME      = TEME
TIME_SYSTEM    = UTC
MEAN_ELEMENT_THEORY = SGP/SGP4

EPOCH          = 2025-11-08T04:00:01.998720
MEAN_MOTION    = 15.72398540
ECCENTRICITY   = .0001235
INCLINATION    = 53.1589
RA_OF_ASC_NODE = 270.6028
ARG_OF_PERICENTER = 81.0865
MEAN_ANOMALY   = 3.5311

EPHEMERIS_TYPE = 0
CLASSIFICATION_TYPE = U
NORAD_CAT_ID   = 66149
ELEMENT_SET_NO = 999
REV_AT_EPOCH   = 334
BSTAR          = -.15842E-1
MEAN_MOTION_DOT = -.1871378E-1
MEAN_MOTION_DDOT = 0

CCSDS_OMM_VERS = 2.0
CREATION_DATE  = 
ORIGINATOR     = 

OBJECT_NAME    = STARLINK-35605
OBJECT_ID      = 2025-240E
CENTER_NAME    = EARTH
REF_FRAME      = TEME
TIME_SYSTEM    = UTC
MEAN_ELEMENT_THEORY = SGP/SGP4

EPOCH          = 2025-11-08T04:00:01.998720
MEAN_MOTION    = 15.72393859
ECCENTRICITY   = .0001132
INCLINATION    = 53.1588
RA_OF_ASC_NODE = 270.5992
ARG_OF_PERICENTER = 64.1335
MEAN_ANOMALY   = 22.4020

EPHEMERIS_TYPE = 0
CLASSIFICATION_TYPE = U
NORAD_CAT_ID   = 66150
ELEMENT_SET_NO = 999
REV_AT_EPOCH   = 334
BSTAR          = -.15775E-1
MEAN_MOTION_DOT = -.1864136E-1
MEAN_MOTION_DDOT = 0

CCSDS_OMM_VERS = 2.0
CREATION_DATE  = 
ORIGINATOR     = 

OBJECT_NAME    = STARLINK-35540
OBJECT_ID      = 2025-240F
CENTER_NAME    = EARTH
REF_FRAME      = TEME
TIME_SYSTEM    = UTC
MEAN_ELEMENT_THEORY = SGP/SGP4

EPOCH          = 2025-11-08T04:00:01.998720
MEAN_MOTION    = 15.72397966
ECCENTRICITY   = .0001114
INCLINATION    = 53.1587
RA_OF_ASC_NODE = 270.5948
ARG_OF_PERICENTER = 71.9161
MEAN_ANOMALY   = 16.5338

EPHEMERIS_TYPE = 0
CLASSIFICATION_TYPE = U
NORAD_CAT_ID   = 66151
ELEMENT_SET_NO = 999
REV_AT_EPOCH   = 334
BSTAR          = -.15817E-1
MEAN_MOTION_DOT = -.1868651E-1
MEAN_MOTION_DDOT = 0

CCSDS_OMM_VERS = 2.0
CREATION_DATE  = 
ORIGINATOR     = 

OBJECT_NAME    = STARLINK-35455
OBJECT_ID      = 2025-240G
CENTER_NAME    = EARTH
REF_FRAME      = TEME
TIME_SYSTEM    = UTC
MEAN_ELEMENT_THEORY = SGP/SGP4

EPOCH          = 2025-11-08T04:00:01.998720
MEAN_MOTION    = 15.72411095
ECCENTRICITY   = .0001284
INCLINATION    = 53.1588
RA_OF_ASC_NODE = 270.5905
ARG_OF_PERICENTER = 63.8591
MEAN_ANOMALY   = 26.4989

EPHEMERIS_TYPE = 0
CLASSIFICATION_TYPE = U
NORAD_CAT_ID   = 66152
ELEMENT_SET_NO = 999
REV_AT_EPOCH   = 334
BSTAR          = -.1595E-1
MEAN_MOTION_DOT = -.1883375E-1
MEAN_MOTION_DDOT = 0

CCSDS_OMM_VERS = 2.0
CREATION_DATE  = 
ORIGINATOR     = 

OBJECT_NAME    = STARLINK-34752
OBJECT_ID      = 2025-240H
CENTER_NAME    = EARTH
REF_FRAME      = TEME
TIME_SYSTEM    = UTC
MEAN_ELEMENT_THEORY = SGP/SGP4

EPOCH          = 2025-11-08T04:00:01.998720
MEAN_MOTION    = 15.72389442
ECCENTRICITY   = .0001016
INCLINATION    = 53.1590
RA_OF_ASC_NODE = 270.5869
ARG_OF_PERICENTER = 75.6982
MEAN_ANOMALY   = 16.5970

EPHEMERIS_TYPE = 0
CLASSIFICATION_TYPE = U
NORAD_CAT_ID   = 66153
ELEMENT_SET_NO = 999
REV_AT_EPOCH   = 334
BSTAR          = -.15782E-1
MEAN_MOTION_DOT = -.1864402E-1
MEAN_MOTION_DDOT = 0

CCSDS_OMM_VERS = 2.0
CREATION_DATE  = 
ORIGINATOR     = 

OBJECT_NAME    = STARLINK-34625
OBJECT_ID      = 2025-240J
CENTER_NAME    = EARTH
REF_FRAME      = TEME
TIME_SYSTEM    = UTC
MEAN_ELEMENT_THEORY = SGP/SGP4

EPOCH          = 2025-11-08T04:00:01.998720
MEAN_MOTION    = 15.72391858
ECCENTRICITY   = .0001276
INCLINATION    = 53.1588
RA_OF_ASC_NODE = 270.5828
ARG_OF_PERICENTER = 78.0508
MEAN_ANOMALY   = 16.1588

EPHEMERIS_TYPE = 0
CLASSIFICATION_TYPE = U
NORAD_CAT_ID   = 66154
ELEMENT_SET_NO = 999
REV_AT_EPOCH   = 339
BSTAR          = -.15802E-1
MEAN_MOTION_DOT = -.1866825E-1
MEAN_MOTION_DDOT = 0

CCSDS_OMM_VERS = 2.0
CREATION_DATE  = 
ORIGINATOR     = 

OBJECT_NAME    = STARLINK-35580
OBJECT_ID      = 2025-240K
CENTER_NAME    = EARTH
REF_FRAME      = TEME
TIME_SYSTEM    = UTC
MEAN_ELEMENT_THEORY = SGP/SGP4

EPOCH          = 2025-11-08T04:00:01.998720
MEAN_MOTION    = 15.72399768
ECCENTRICITY   = .0001126
INCLINATION    = 53.1586
RA_OF_ASC_NODE = 270.5780
ARG_OF_PERICENTER = 67.5721
MEAN_ANOMALY   = 28.5445

EPHEMERIS_TYPE = 0
CLASSIFICATION_TYPE = U
NORAD_CAT_ID   = 66155
ELEMENT_SET_NO = 999
REV_AT_EPOCH   = 334
BSTAR          = -.15833E-1
MEAN_MOTION_DOT = -.187041E-1
MEAN_MOTION_DDOT = 0

