CZ-5 R/B                
1 66143U 25238B   25311.94459934  .00053290  10620-5  18472-2 0  9996
2 66143  16.3413 268.2612 7594357 173.6154 210.0895  1.93549238   317
SPAINSAT NG II          
1 66144U 25239A   25311.56312970 -.00000289  00000+0  00000+0 0  9995
2 66144  23.0112 244.8198 8080189 181.7023 170.8897  1.10251161   181
STARLINK-35318          
1 66146U 25240A   25312.16668980 -.01876971  00000+0 -15896-1 0  9993
2 66146  53.1579 270.6149 0000908 101.8625 337.0032 15.72402718  3394
STARLINK-33948          
1 66147U 25240B   25312.16668980 -.01877208  00000+0 -15897-1 0  9999
2 66147  53.1579 270.6109 0001259  76.1572   4.6281 15.72401043  3399
STARLINK-35081          
1 66148U 25240C   25312.16668980 -.01877852  00000+0 -15902-1 0  9992
2 66148  53.1589 270.6072 0001089  86.5984 356.0974 15.72404983  3347
STARLINK-35601          
1 66149U 25240D   25312.16668980 -.01871378  00000+0 -15842-1 0  9993
2 66149  53.1589 270.6028 0001235  81.0865   3.5311 15.72398540  3340
STARLINK-35605          
1 66150U 25240E   25312.16668980 -.01864136  00000+0 -15775-1 0  9994
2 66150  53.1588 270.5992 0001132  64.1335  22.4020 15.72393859  3345
STARLINK-35540          
1 66151U 25240F   25312.16668980 -.01868651  00000+0 -15817-1 0  9998
2 66151  53.1587 270.5948 0001114  71.9161  16.5338 15.72397966  3348
STARLINK-35455          
1 66152U 25240G   25312.16668980 -.01883375  00000+0 -15950-1 0  9997
2 66152  53.1588 270.5905 0001284  63.8591  26.4989 15.72411095  3340
STARLINK-34752          
1 66153U 25240H   25312.16668980 -.01864402  00000+0 -15782-1 0  9991
2 66153  53.1590 270.5869 0001016  75.6982  16.5970 15.72389442  3341
STARLINK-34625          
1 66154U 25240J   25312.16668980 -.01866825  00000+0 -15802-1 0  9996
2 66154  53.1588 270.5828 0001276  78.0508  16.1588 15.72391858  3393
STARLINK-35580          
1 66155U 25240K   25312.16668980 -.01870410  00000+0 -15833-1 0  9996
2 66155  53.1586 270.5780 0001126  67.5721  28.5445 15.72399768  3345
